From: horizons@ssd.jpl.nasa.gov (Horizons Ephemeris System)
Subject: [Horizons] SMALL BODY #C(500@10)_T(Nevski (C/2013 V3)) (1/1)
Date: February 14, 2021 at 6:45:45 PM PST

Automated mail xmit by MAIL_REQUEST, PID= 7423 Sun Feb 14 18:45:45 2021
++++++++++++++++++++++++++++++++ (part 1 of 1)  +++++++++++++++++++++++++++++++
*******************************************************************************
JPL/HORIZONS                 Nevski (C/2013 V3)            2021-Feb-14 18:45:45
Rec #:90004121 (+COV) Soln.date: 2014-Jun-13_19:45:15    # obs: 905 (2013-2014)

IAU76/J2000 helio. ecliptic osc. elements (au, days, deg., period=Julian yrs):

 EPOCH=  2456629.5 ! 2013-Dec-03.0000000 (TDB)    RMSW= n.a.
  EC= .8909685922028165   QR= 1.386692685403626   TP= 2456595.4058257584
  OM= 100.9181160202745   W= 339.6433006262093    IN= 32.13447939562106
  A= 12.71828653247425    MA= .7408688627774501   ADIST= 24.04988037954487
  PER= 45.357710204504    N= .021730071           ANGMOM= .027855677
  DAN= 1.42874            DDN= 15.92328           L= 83.4756895
  B= -10.6629657          MOID= .42724401         TP= 2013-Oct-29.9058257584

Comet physical (GM= km^3/s^2; RAD= km):
  GM= n.a.                RAD= n.a.
  M1=  15.2     M2=  n.a.     k1=  7.     k2= n.a.     PHCOF= n.a.

COMET comments 
1: soln ref.= JPL#31, data arc: 2013-11-06 to 2014-03-08
2: k1=7.;
*******************************************************************************


*******************************************************************************
Ephemeris / MAIL_REQUEST Sun Feb 14 18:45:45 2021 Pasadena, USA  / Horizons
*******************************************************************************
Target body name: Nevski (C/2013 V3)              {source: JPL#31}
Center body name: Sun (10)                        {source: DE431}
Center-site name: BODY CENTER
*******************************************************************************
Start time      : A.D. 1990-Jan-01 00:00:00.0000 TDB
Stop  time      : A.D. 2020-Dec-31 00:00:00.0000 TDB
Step-size       : 200 steps
*******************************************************************************
Center geodetic : 0.00000000,0.00000000,0.0000000 {E-lon(deg),Lat(deg),Alt(km)}
Center cylindric: 0.00000000,0.00000000,0.0000000 {E-lon(deg),Dxy(km),Dz(km)}
Center radii    : 696000.0 x 696000.0 x 696000.0 k{Equator, meridian, pole}    
Small perturbers: Yes                             {source: SB431-N16}
Output units    : AU-D
Output type     : GEOMETRIC cartesian states
Output format   : 6 (LT, range, and range-rate)
Reference frame : Ecliptic of J2000.0
*******************************************************************************
Initial IAU76/J2000 heliocentric ecliptic osculating elements (au, days, deg.):
 EPOCH=  2456629.5 ! 2013-Dec-03.0000000 (TDB)    RMSW= n.a.                  
  EC= .8909685922028165   QR= 1.386692685403626   TP= 2456595.4058257584      
  OM= 100.9181160202745   W= 339.6433006262093    IN= 32.13447939562106       
 Equivalent ICRF heliocentric equatorial cartesian coordinates (au, au/d):
  X=-4.220175135953236E-01  Y= 1.245369132198301E+00  Z= 6.423329144276033E-01
 VX=-1.652721873713522E-02 VY=-5.155256370474021E-03 VZ= 9.023088112088525E-03
Comet physical (GM= km^3/s^2; RAD= km):                                        
  GM= n.a.                RAD= n.a.                                           
  M1=  15.2     M2=  n.a.     k1=  7.     k2= n.a.     PHCOF= n.a.            
*******************************************************************************
           JDTDB,            Calendar Date (TDB),                     LT,                     RG,                     RR,
**************************************************************************************************************************
$$SOE
2450723.000000000, A.D. 1997-Oct-01 12:00:00.0000,  1.306586090134730E-01,  2.262283686336497E+01, -1.120961466631607E-03,
2450779.610000000, A.D. 1997-Nov-27 02:38:24.0000,  1.302873048450028E-01,  2.255854753950478E+01, -1.150340792702733E-03,
2450836.220000000, A.D. 1998-Jan-22 17:16:48.0000,  1.299063992935265E-01,  2.249259578771084E+01, -1.179718453701905E-03,
2450892.830000000, A.D. 1998-Mar-20 07:55:12.0000,  1.295158576135514E-01,  2.242497559198758E+01, -1.209303800042931E-03,
2450949.440000000, A.D. 1998-May-15 22:33:36.0000,  1.291156019313388E-01,  2.235567346891509E+01, -1.239135523020781E-03,
2451006.050000000, A.D. 1998-Jul-11 13:12:00.0000,  1.287055756261857E-01,  2.228467961492260E+01, -1.269041333200022E-03,
2451062.660000000, A.D. 1998-Sep-06 03:50:24.0000,  1.282857649172520E-01,  2.221199164393154E+01, -1.298992670245701E-03,
2451119.270000000, A.D. 1998-Nov-01 18:28:48.0000,  1.278561424634282E-01,  2.213760482197562E+01, -1.329093704090832E-03,
2451175.880000000, A.D. 1998-Dec-28 09:07:12.0000,  1.274166471336948E-01,  2.206150856454688E+01, -1.359362876816739E-03,
2451232.490000000, A.D. 1999-Feb-22 23:45:36.0000,  1.269672375672452E-01,  2.198369571024368E+01, -1.389730168903691E-03,
2451289.100000000, A.D. 1999-Apr-20 14:24:00.0000,  1.265078874391915E-01,  2.190416170105297E+01, -1.420202581174385E-03,
2451345.710000000, A.D. 1999-Jun-16 05:02:24.0000,  1.260385324373233E-01,  2.182289540166068E+01, -1.450934865971137E-03,
2451402.320000000, A.D. 1999-Aug-11 19:40:48.0000,  1.255590846037020E-01,  2.173988158262185E+01, -1.481923885413669E-03,
2451458.930000000, A.D. 1999-Oct-07 10:19:12.0000,  1.250694921749917E-01,  2.165511128139272E+01, -1.512974319571580E-03,
2451515.540000000, A.D. 1999-Dec-03 00:57:36.0000,  1.245697377064328E-01,  2.156858147750677E+01, -1.544091519534138E-03,
2451572.150000000, A.D. 2000-Jan-28 15:36:00.0000,  1.240597742504874E-01,  2.148028404224982E+01, -1.575463837900241E-03,
2451628.760000000, A.D. 2000-Mar-25 06:14:24.0000,  1.235395051486162E-01,  2.139020223971458E+01, -1.607122844824190E-03,
2451685.370000000, A.D. 2000-May-20 20:52:48.0000,  1.230088476988721E-01,  2.129832175050279E+01, -1.638980681378763E-03,
2451741.980000000, A.D. 2000-Jul-16 11:31:12.0000,  1.224677484552308E-01,  2.120463332072221E+01, -1.671024042830040E-03,
2451798.590000000, A.D. 2000-Sep-11 02:09:36.0000,  1.219161277787347E-01,  2.110912316131478E+01, -1.703352660765246E-03,
2451855.200000000, A.D. 2000-Nov-06 16:48:00.0000,  1.213538854296817E-01,  2.101177391631409E+01, -1.735971608803186E-03,
2451911.810000000, A.D. 2001-Jan-02 07:26:24.0000,  1.207809524556226E-01,  2.091257364697365E+01, -1.768750212440615E-03,
2451968.420000000, A.D. 2001-Feb-27 22:04:48.0000,  1.201972706656091E-01,  2.081151227784314E+01, -1.801742961185885E-03,
2452025.030000000, A.D. 2001-Apr-25 12:43:12.0000,  1.196027358814404E-01,  2.070857177102619E+01, -1.835163661742209E-03,
2452081.640000000, A.D. 2001-Jun-21 03:21:36.0000,  1.189972063572385E-01,  2.060372758398483E+01, -1.868987124190924E-03,
2452138.250000000, A.D. 2001-Aug-16 18:00:00.0000,  1.183805710059664E-01,  2.049696048259488E+01, -1.903062799257756E-03,
2452194.860000000, A.D. 2001-Oct-12 08:38:24.0000,  1.177527569155781E-01,  2.038825784252689E+01, -1.937392940482898E-03,
2452251.470000000, A.D. 2001-Dec-07 23:16:48.0000,  1.171136624905452E-01,  2.027760207306040E+01, -1.972094653315670E-03,
2452308.080000000, A.D. 2002-Feb-02 13:55:12.0000,  1.164631495790912E-01,  2.016496925395685E+01, -2.007214804408562E-03,
2452364.690000000, A.D. 2002-Mar-31 04:33:36.0000,  1.158010970047323E-01,  2.005033840415845E+01, -2.042686454089503E-03,
2452421.300000000, A.D. 2002-May-26 19:12:00.0000,  1.151273906556995E-01,  1.993368976582487E+01, -2.078526254746368E-03,
2452477.910000000, A.D. 2002-Jul-22 09:50:24.0000,  1.144418809566031E-01,  1.981499744078018E+01, -2.114890384884955E-03,
2452534.520000000, A.D. 2002-Sep-17 00:28:48.0000,  1.137444010333646E-01,  1.969423253567340E+01, -2.151736904898734E-03,
2452591.130000000, A.D. 2002-Nov-12 15:07:12.0000,  1.130348189358510E-01,  1.957137220404719E+01, -2.188901222886481E-03,
2452647.740000000, A.D. 2003-Jan-08 05:45:36.0000,  1.123130267467604E-01,  1.944639776059995E+01, -2.226450581477914E-03,
2452704.350000000, A.D. 2003-Mar-05 20:24:00.0000,  1.115788702654921E-01,  1.931928250632535E+01, -2.264575351431793E-03,
2452760.960000000, A.D. 2003-May-01 11:02:24.0000,  1.108321467149471E-01,  1.918999133145703E+01, -2.303297402311795E-03,
2452817.570000000, A.D. 2003-Jun-27 01:40:48.0000,  1.100726797511525E-01,  1.905849370298260E+01, -2.342511616499726E-03,
2452874.180000000, A.D. 2003-Aug-22 16:19:12.0000,  1.093003191350970E-01,  1.892476360782361E+01, -2.382198694535166E-03,
2452930.790000000, A.D. 2003-Oct-18 06:57:36.0000,  1.085148836537499E-01,  1.878876966991646E+01, -2.422491904779708E-03,
2452987.400000000, A.D. 2003-Dec-13 21:36:00.0000,  1.077161735831666E-01,  1.865047730813210E+01, -2.463389653636736E-03,
2453044.010000000, A.D. 2004-Feb-08 12:14:24.0000,  1.069040119721915E-01,  1.850985588432769E+01, -2.504780143614068E-03,
2453100.620000000, A.D. 2004-Apr-05 02:52:48.0000,  1.060782217115608E-01,  1.836687473298482E+01, -2.546774653082010E-03,
2453157.230000000, A.D. 2004-May-31 17:31:12.0000,  1.052385766425713E-01,  1.822149469593790E+01, -2.589559166332311E-03,
2453213.840000000, A.D. 2004-Jul-27 08:09:36.0000,  1.043848201912688E-01,  1.807367134878387E+01, -2.633072006296001E-03,
2453270.450000000, A.D. 2004-Sep-21 22:48:00.0000,  1.035167339846144E-01,  1.792336688140311E+01, -2.677187486251047E-03,
2453327.060000000, A.D. 2004-Nov-17 13:26:24.0000,  1.026341267136977E-01,  1.777054816968463E+01, -2.721937961597011E-03,
2453383.670000000, A.D. 2005-Jan-13 04:04:48.0000,  1.017367613515223E-01,  1.761517417367619E+01, -2.767484599682628E-03,
2453440.280000000, A.D. 2005-Mar-10 18:43:12.0000,  1.008243617951163E-01,  1.745719708763012E+01, -2.813886464930828E-03,
2453496.890000000, A.D. 2005-May-06 09:21:36.0000,  9.989666600614454E-02,  1.729657154101517E+01, -2.861059898537586E-03,
